#dP2021 11  5  0  0  0.00000000      96 __u+U ITR00 FIT  IAC
## 2182 432000.00000000   900.00000000 59523 0.0000000000000
+  124   C01C02C03C04C05C06C07C08C09C10C11C12C13C14C16C19C20
+        C21C22C23C24C25C26C27C28C29C30C32C33C34C35C36C37C38
+        C39C40C41C42C43C44C45C46C60E01E02E03E04E05E07E08E09
+        E11E12E13E14E15E18E19E21E24E25E26E27E31E33E36G01G02
+        G03G04G05G06G07G08G09G10G12G13G14G15G16G17G18G19G20
+        G21G22G23G24G25G26G27G28G29G30G31G32J01J02J03R01R02
+        R03R04R05R06R07R08R09R10R11R12R13R14R15R16R17R18R19
+        R20R21R22R23R24  0  0  0  0  0  0  0  0  0  0  0  0
++         0  0  0  0  0  0  0  0  0  0  0  0  0  0  0  0  0
++         0  0  0  0  0  0  0  0  0  0  0  0  0  0  0  0  0
++         0  0  0  0  0  0  0  0  0  0  0  0  0  0  0  0  0
++         0  0  0  0  0  0  0  0  0  0  0  0  0  0  0  0  0
++         0  0  0  0  0  0  0  0  0  0  0  0  0  0  0  0  0
++         0  0  0  0  0  0  0  0  0  0  0  0  0  0  0  0  0
++         0  0  0  0  0  0  0  0  0  0  0  0  0  0  0  0  0
++         0  0  0  0  0  0  0  0  0  0  0  0  0  0  0  0  0
%c M  cc GPS ccc cccc cccc cccc cccc ccccc ccccc ccccc ccccc
%c cc cc ccc ccc cccc cccc cccc cccc ccccc ccccc ccccc ccccc
%f  0.0000000  0.000000000  0.00000000000  0.000000000000000
%f  0.0000000  0.000000000  0.00000000000  0.000000000000000
%i    0    0    0    0      0      0      0      0         0
%i    0    0    0    0      0      0      0      0         0
/* INFORMATION & ANALYSIS CENTER (IAC)            RAPID DATA
/* S/V CLOCKS ARE ALIGNED TO GNSS TIME                      
/* G:C1WC2W R:C1PC2P E:C1XC5X C:C2IC6I J:C1CC2S             
/* PCV:IGS14_2163 OL/AL:FES2004  NONE     YN ORB:CoN CLK:CoN
*  2021 11 05  6  0  0.00000000
PC01 -34361.299315  24421.357102   -194.729901   -480.199665
PC02   4521.554569  41948.551573    744.497101    187.938465
PC03 -14772.208223  39524.738219    -14.058183    112.926290
PC04 -39648.603721  14352.743080   -536.376054   -193.917450
PC05  21903.479903  36025.463175   1136.991792    291.596570
PC06  -1003.904412  29319.041901  30334.843336    440.554703
PC07 -17804.688711  29238.572748 -24683.786488   -295.236503
PC08 -10115.751052  40762.693390  -2640.822509   -798.685780
PC09   5942.893808  33059.097947  26069.637797   -241.306694
PC10  -9474.839172  29376.457732 -28643.772880     10.702167
PC11 -16543.371702 -21985.521319   4874.478793    672.091292
PC12  -1728.843867 -20041.515009  19393.918130    728.442901
PC13  -5510.477206  41504.436748   3450.835716    465.077016
PC14 -11808.331928 -12545.152096 -21949.808471    550.190044
PC16  -4979.246053  26516.523888  32585.234700   -734.895813
PC19  20690.128236   6786.952373  17461.396298    939.402853
PC20   2918.843901  15616.639261  22946.715479   -790.684575
PC21  17647.376913 -15563.422515 -14985.245381   -934.321138
PC22  27131.825219  -6276.992036   1603.750857   -964.802380
PC23 -17299.571823   7233.329332  20672.899820   -968.107384
PC24    630.184108 -26491.513215   8795.607823   -965.506396
PC25 -12648.585618 -12683.651678  21400.075883   -829.445162
PC26  11406.887669 -24390.090846  -7416.479953    826.230327
PC27  -7273.212343  14819.696224 -22516.857717    624.459776
PC28 -20267.948228  -1891.974411 -19088.729100     -6.550977
PC29  21967.703797  16627.682468   4424.404776    470.040384
PC30  10225.857546  22355.769163 -13223.643412    485.420702
PC32 -17595.768464  15695.248882  14933.996067   -964.955589
PC33 -20680.991119  -6739.538598 -17492.050052   -971.428188
PC34 -10902.484148 -22432.987553  12491.161245   -543.979002
PC35  20577.900204   1582.407247  18792.427227    -13.748130
PC36  12125.064878  13384.677399 -21244.770498   -795.595424
PC37 -12480.003126  23507.911461   8364.173196   -885.365568
PC38 -14725.621020  37809.683404 -11097.879008    187.244184
PC39  -9340.011495  23042.866741  34060.121719     33.895934
PC40 -25035.729934  23415.237690 -24642.106560    214.873686
PC41 -27144.253844   6147.019618  -1933.147616   -917.597762
PC42  -1953.053310 -15884.386351 -22825.899532   -948.315891
PC43 -21731.656783 -17065.642033  -3844.823814   -962.774862
PC44   7063.307821 -14975.136806  22453.141975    455.474443
PC45  17185.063453  -7543.297080 -20655.134990    592.545149
PC46    259.644606  26052.044668  -9932.423221      7.184257
PC60   7282.798762  41502.080372  -1339.503713     -0.501163
PE01  16377.101547   6175.820554 -23864.437181   -510.432957
PE02 -16460.864075  -6066.379753  23843.934826    258.200627
PE03 -26822.042680 -10850.257770  -6285.556100   -492.638064
PE04  27041.641298  -2259.888600 -11829.443875   -892.877128
PE05 -10831.531032 -17812.166274 -21020.008627   -236.365169
PE07 -11267.696965  14312.687377  23329.118110   -603.638019
PE08 -26850.544888   2570.000172  12194.849415   5910.170993
PE09  10935.175818 -14322.423611 -23486.572898   5474.314623
PE11   4928.150876 -23175.862074  17733.490678   5140.930541
PE12  15740.836982  -3738.345500  24789.256224   4925.617545
PE13  -5184.882679  22789.147600 -18154.990814    423.360651
PE14 -26163.935132 -13128.257719    603.252240  -1629.343818
PE15 -15673.066742   3689.148235 -24830.235257    782.749003
PE18  16457.069063  19084.152988 -11711.703019  -1790.480366
PE19  25606.562068  12155.066846   8532.549589    419.754045
PE21    504.369663  20522.588392 -21315.487604   -697.730440
PE24  17286.611762 -23452.063289   5307.930026  -1209.265916
PE25   -284.063793 -20656.877641  21214.541168   -552.477398
PE26   8833.650011  28242.932385    209.978902   1148.278147
PE27 -16460.664769  23759.405655  -6338.053509   -157.911172
PE31  23605.531630 -13023.443308 -12216.832685   -487.666758
PE33  16893.605282  17507.880194  16863.860866   -462.913233
PE36  -8297.871701 -28403.171255    842.869595   -285.767812
PG01  13539.973262  -6613.145030  21556.075863    519.558775
PG02 -13954.203004 -16576.340128 -14646.874042   -640.659598
PG03  22730.051189 -11754.852536   6814.333864     -6.050599
PG04  21395.607612  -2374.028322 -15604.247547   -202.521002
PG05 -19579.064033   -231.083422 -18180.149645    -60.013267
PG06  -5784.585978 -25643.034415  -3507.364682    110.464655
PG07   6901.173410 -21329.175581 -13481.337724    273.432876
PG08  25505.463868   5618.482797   5690.615969    -42.869384
PG09  11566.671988 -11530.876410 -21023.555386   -361.865848
PG10  -5199.259103  19260.069522  17508.568166   -239.177882
PG12 -23470.396181   9202.650181   7887.245365   -121.758602
PG13 -23057.580947 -13352.562356   -180.583267    209.923425
PG14   6093.340508 -19275.309206  17197.329578    -32.468904
PG15 -25927.183078  -2796.602269   5497.006243   -108.794374
PG16  17549.390348   4782.346836 -19765.443978   -418.828441
PG17  -2307.275737 -16693.879267  20963.833963    529.242488
PG18  -6271.995002  22328.946805 -12859.220241    300.325202
PG19 -11546.683952 -18056.912498  15530.197208     75.118331
PG20 -12059.491384 -10033.879723 -21445.843199    518.285287
PG21  16168.421377   2897.955036  21650.414849    150.042016
PG22  21534.286382  -6106.118772  14310.685301   -472.348840
PG23 -15330.575194  19986.233215   8268.379710     36.664469
PG24 -15551.318100   1994.042330  21176.519872    263.434103
PG25 -19989.467860  17197.908232  -1725.832699    235.647326
PG26   6384.607015  14839.032084 -21106.661694    152.165918
PG27  23211.066012  12651.577618  -4362.859684   -215.259853
PG28   -736.841440 -16732.630556  21205.108246    469.002171
PG29 -15532.701138   7394.524144 -20294.252799   -436.218119
PG30    -90.293714 -26122.523862  -3962.189353   -488.653126
PG31   7040.896760  24655.409760  -5999.411178   -148.562060
PG32   7296.548107  17296.982942  18974.017429    -18.167643
PJ01 -31556.626527  22656.370009  21354.613683    147.367434
PJ02 -33293.015858  25776.632278   6356.869792     -4.342649
PJ03 -22082.928062  19615.725472 -25493.648865     -5.448343
PR01  21042.175520   4468.462991  13695.264857     87.678566
PR02  24360.941315  -4671.105344  -6062.338132    499.012767
PR03  12074.949663 -10456.288302 -19873.331562     45.906482
PR04  -6776.548223 -10027.296378 -22433.079102    112.719592
PR05 -21805.950151  -4246.868570 -12506.635061     81.912723
PR06 -23776.694884   5907.586427   7032.452900    -13.886152
PR07 -11269.217518  10579.924391  20303.442866    -40.182637
PR08   6908.716842  10138.492907  22414.378174    -61.848886
PR09 -14733.176761  12995.178867  16331.486253     21.907315
PR10 -11230.190980  22803.828099   1587.897154    -76.729246
PR11  -1201.731873  20272.444448 -15429.638164     50.652585
PR12   9759.636430   5020.643853 -22996.906799    275.849759
PR13  14513.805689 -12167.350664 -17100.531604    -63.101254
PR14  10862.768095 -23070.855460   -254.800312     70.686353
PR15    937.236759 -19910.431175  15941.353644    100.394535
PR16 -10544.544204  -3711.974876  22906.775307    -24.470508
PR17    880.481197 -15201.261954  20491.552501    472.199912
PR18 -10572.402452 -21882.266184   7698.389602     96.125635
PR19 -15915.192079 -18123.152068  -8320.237336   -165.799687
PR20 -12499.921976  -1357.419355 -22177.139092    -58.780671
PR21     63.821656  16014.758774 -19837.928613   -252.165443
PR22  11052.412910  22037.981012  -6726.905587   -143.242646
PR23  16494.395773  13490.732050  14011.663532    -18.944675
PR24  12576.526294    167.578305  22207.479801     65.663961
EOF
